COMMENT,ORIGINATOR,NORAD_CAT_ID,OBJECT_NAME,OBJECT_TYPE,CLASSIFICATION_TYPE,INTLDES,EPOCH,EPOCH_MICROSECONDS,MEAN_MOTION,ECCENTRICITY,INCLINATION,RA_OF_ASC_NODE,ARG_OF_PERICENTER,MEAN_ANOMALY,EPHEMERIS_TYPE,ELEMENT_SET_NO,REV_AT_EPOCH,BSTAR,MEAN_MOTION_DOT,MEAN_MOTION_DDOT,FILE,TLE_LINE0,TLE_LINE1,TLE_LINE2,OBJECT_ID,OBJECT_NUMBER,SEMIMAJOR_AXIS,PERIOD,APOGEE,PERIGEE,DECAYED,date
GENERATED VIA SPACETRACK.ORG API,18 SPCS,48888,SPACEBEE-103,PAYLOAD,U,21059K,2023/2/17 8:45,313984,15.23249694,0.0007968,97.578,183.2527,329.5582,30.5191,0,999,9110,0.0014682,0.00034869,0,3802730,0 SPACEBEE-103,1 48888U 21059K   23048.36467956  .00034869  00000-0  14682-2 0  9999,2 48888  97.5780 183.2527 0007968 329.5582  30.5191 15.23249694 91101,2021-059K,48888,6874.183,94.535,501.526,490.571,0,2023/4/3
GENERATED VIA SPACETRACK.ORG API,18 SPCS,48888,SPACEBEE-103,PAYLOAD,U,21059K,2023/2/17 21:21,366400,15.23282624,0.0007936,97.5783,183.7833,327.6315,32.4434,0,999,9118,0.001199,0.00028465,0,3804075,0 SPACEBEE-103,1 48888U 21059K   23048.89020100  .00028465  00000-0  11990-2 0  9997,2 48888  97.5783 183.7833 0007936 327.6315  32.4434 15.23282624 91186,2021-059K,48888,6874.084,94.533,501.405,490.494,0,2023/4/4
GENERATED VIA SPACETRACK.ORG API,18 SPCS,48888,SPACEBEE-103,PAYLOAD,U,21059K,2023/2/18 9:58,526304,15.23312208,0.0007957,97.5784,184.3137,325.6913,34.3809,0,999,9126,0.0011464,0.00027233,0,3806285,0 SPACEBEE-103,1 48888U 21059K   23049.41571211  .00027233  00000-0  11464-2 0  9998,2 48888  97.5784 184.3137 0007957 325.6913  34.3809 15.23312208 91264,2021-059K,48888,6873.995,94.531,501.33,490.391,0,2023/4/5
GENERATED VIA SPACETRACK.ORG API,18 SPCS,48888,SPACEBEE-103,PAYLOAD,U,21059K,2023/2/18 14:42,846400,15.23324161,0.0007948,97.5783,184.5127,324.9354,35.1359,0,999,9129,0.0011986,0.00028491,0,3807124,0 SPACEBEE-103,1 48888U 21059K   23049.61277600  .00028491  00000-0  11986-2 0  9991,2 48888  97.5783 184.5127 0007948 324.9354  35.1359 15.23324161 91298,2021-059K,48888,6873.959,94.53,501.288,490.361,0,2023/4/6
GENERATED VIA SPACETRACK.ORG API,18 SPCS,48888,SPACEBEE-103,PAYLOAD,U,21059K,2023/2/19 14:21,685184,15.2337694,0.0008039,97.5786,185.5074,320.8477,39.2177,0,999,9144,0.0011202,0.00026658,0,3811050,0 SPACEBEE-103,1 48888U 21059K   23050.59807506  .00026658  00000-0  11202-2 0  9998,2 48888  97.5786 185.5074 0008039 320.8477  39.2177 15.23376940 91448,2021-059K,48888,6873.8,94.527,501.191,490.14,0,2023/4/7
GENERATED VIA SPACETRACK.ORG API,18 SPCS,48888,SPACEBEE-103,PAYLOAD,U,21059K,2023/2/19 14:21,685184,15.2337694,0.0008039,97.5786,185.5074,320.8477,39.2177,0,999,9144,0.0011202,0.00026658,0,3811610,0 SPACEBEE-103,1 48888U 21059K   23050.59807506  .00026658  00000-0  11202-2 0  9998,2 48888  97.5786 185.5074 0008039 320.8477  39.2177 15.23376940 91448,2021-059K,48888,6873.8,94.527,501.191,490.14,0,2023/4/8
GENERATED VIA SPACETRACK.ORG API,18 SPCS,48888,SPACEBEE-103,PAYLOAD,U,21059K,2023/2/20 7:41,280640,15.23419025,0.0008023,97.5789,186.2373,318.6536,41.4093,0,999,9155,0.0011642,0.00027747,0,3815761,0 SPACEBEE-103,1 48888U 21059K   23051.32060510  .00027747  00000-0  11642-2 0  9994,2 48888  97.5789 186.2373 0008023 318.6536  41.4093 15.23419025 91551,2021-059K,48888,6873.674,94.524,501.054,490.024,0,2023/4/9
GENERATED VIA SPACETRACK.ORG API,18 SPCS,48888,SPACEBEE-103,PAYLOAD,U,21059K,2023/2/20 21:52,353792,15.23452659,0.0007958,97.5792,186.8342,316.5536,43.5073,0,999,9164,0.0011679,0.00027863,0,3816966,0 SPACEBEE-103,1 48888U 21059K   23051.91175178  .00027863  00000-0  11679-2 0  9995,2 48888  97.5792 186.8342 0007958 316.5536  43.5073 15.23452659 91641,2021-059K,48888,6873.573,94.522,500.908,489.968,0,2023/4/10
GENERATED VIA SPACETRACK.ORG API,18 SPCS,48888,SPACEBEE-103,PAYLOAD,U,21059K,2023/2/21 15:13,742080,15.23500223,0.0007943,97.5794,187.5641,314.3164,45.742,0,999,9175,0.0013158,0.0003146,0,3819803,0 SPACEBEE-103,1 48888U 21059K   23052.63424470  .00031460  00000-0  13158-2 0  9999,2 48888  97.5794 187.5641 0007943 314.3164  45.7420 15.23500223 91753,2021-059K,48888,6873.43,94.519,500.754,489.835,0,2023/4/11
GENERATED VIA SPACETRACK.ORG API,18 SPCS,48888,SPACEBEE-103,PAYLOAD,U,21059K,2023/2/21 21:31,694784,15.23517454,0.0007919,97.5795,187.8294,313.2487,46.8088,0,999,9179,0.001313,0.00031409,0,3821329,0 SPACEBEE-103,1 48888U 21059K   23052.89696406  .00031409  00000-0  13130-2 0  9990,2 48888  97.5795 187.8294 0007919 313.2487  46.8088 15.23517454 91790,2021-059K,48888,6873.378,94.518,500.686,489.8,0,2023/4/12
GENERATED VIA SPACETRACK.ORG API,18 SPCS,48888,SPACEBEE-103,PAYLOAD,U,21059K,2023/2/21 21:31,694784,15.23517454,0.0007919,97.5795,187.8294,313.2487,46.8088,0,999,9179,0.001313,0.00031409,0,3822331,0 SPACEBEE-103,1 48888U 21059K   23052.89696406  .00031409  00000-0  13130-2 0  9990,2 48888  97.5795 187.8294 0007919 313.2487  46.8088 15.23517454 91790,2021-059K,48888,6873.378,94.518,500.686,489.8,0,2023/4/13
GENERATED VIA SPACETRACK.ORG API,18 SPCS,48888,SPACEBEE-103,PAYLOAD,U,21059K,2023/2/22 8:33,274496,15.23542908,0.0007939,97.5794,188.2941,311.7471,48.3086,0,999,9186,0.0011469,0.00027432,0,3824148,0 SPACEBEE-103,1 48888U 21059K   23053.35671614  .00027432  00000-0  11469-2 0  9990,2 48888  97.5794 188.2941 0007939 311.7471  48.3086 15.23542908 91866,2021-059K,48888,6873.301,94.517,500.623,489.71,0,2023/4/14
GENERATED VIA SPACETRACK.ORG API,18 SPCS,48888,SPACEBEE-103,PAYLOAD,U,21059K,2023/2/22 14:51,583520,15.23556877,0.0007928,97.5794,188.5592,310.4924,49.5621,0,999,9190,0.0010864,0.00025987,0,3825529,0 SPACEBEE-103,1 48888U 21059K   23053.61942805  .00025987  00000-0  10864-2 0  9993,2 48888  97.5794 188.5592 0007928 310.4924  49.5621 15.23556877 91901,2021-059K,48888,6873.259,94.516,500.573,489.675,0,2023/4/15
GENERATED VIA SPACETRACK.ORG API,18 SPCS,48888,SPACEBEE-103,PAYLOAD,U,21059K,2023/2/22 22:44,158112,15.23577878,0.000797,97.5794,188.8909,309.147,50.9057,0,999,9195,0.0011874,0.00028437,0,3826907,0 SPACEBEE-103,1 48888U 21059K   23053.94781433  .00028437  00000-0  11874-2 0  9992,2 48888  97.5794 188.8909 0007970 309.1470  50.9057 15.23577878 91952,2021-059K,48888,6873.196,94.514,500.539,489.583,0,2023/4/16
GENERATED VIA SPACETRACK.ORG API,18 SPCS,48888,SPACEBEE-103,PAYLOAD,U,21059K,2023/2/23 14:30,210016,15.2361744,0.0008019,97.5793,189.5542,306.6612,53.3887,0,999,9205,0.0012569,0.00030148,0,3828819,0 SPACEBEE-103,1 48888U 21059K   23054.60457419  .00030148  00000-0  12569-2 0  9994,2 48888  97.5793 189.5542 0008019 306.6612  53.3887 15.23617440 92057,2021-059K,48888,6873.077,94.512,500.454,489.431,0,2023/4/17
GENERATED VIA SPACETRACK.ORG API,18 SPCS,48888,SPACEBEE-103,PAYLOAD,U,21059K,2023/2/23 19:14,132000,15.23629737,0.0008025,97.5793,189.7531,305.7836,54.2654,0,999,9208,0.0012136,0.00029114,0,3830532,0 SPACEBEE-103,1 48888U 21059K   23054.80159875  .00029114  00000-0  12136-2 0  9992,2 48888  97.5793 189.7531 0008025 305.7836  54.2654 15.23629737 92089,2021-059K,48888,6873.04,94.511,500.421,489.39,0,2023/4/18
GENERATED VIA SPACETRACK.ORG API,18 SPCS,48888,SPACEBEE-103,PAYLOAD,U,21059K,2023/2/24 7:50,955872,15.2366361,0.0008048,97.5793,190.2842,304.4178,55.6297,0,999,9216,0.0013242,0.00031817,0,3831462,0 SPACEBEE-103,1 48888U 21059K   23055.32699023  .00031817  00000-0  13242-2 0  9996,2 48888  97.5793 190.2842 0008048 304.4178  55.6297 15.23663610 92166,2021-059K,48888,6872.938,94.509,500.335,489.272,0,2023/4/19
GENERATED VIA SPACETRACK.ORG API,18 SPCS,48888,SPACEBEE-103,PAYLOAD,U,21059K,2023/2/24 14:09,505792,15.2367477,0.0008064,97.5794,190.5495,303.5697,56.4769,0,999,9220,0.0010604,0.00025451,0,3832867,0 SPACEBEE-103,1 48888U 21059K   23055.58968178  .00025451  00000-0  10604-2 0  9990,2 48888  97.5794 190.5495 0008064 303.5697  56.4769 15.23674770 92205,2021-059K,48888,6872.905,94.508,500.312,489.227,0,2023/4/20
GENERATED VIA SPACETRACK.ORG API,18 SPCS,48888,SPACEBEE-103,PAYLOAD,U,21059K,2023/2/25 7:29,968960,15.23714002,0.0007984,97.5792,191.2795,300.9649,59.0802,0,999,9231,0.0010474,0.00025166,0,3837227,0 SPACEBEE-103,1 48888U 21059K   23056.31207140  .00025166  00000-0  10474-2 0  9995,2 48888  97.5792 191.2795 0007984 300.9649  59.0802 15.23714002 92314,2021-059K,48888,6872.787,94.506,500.139,489.165,0,2023/4/21
GENERATED VIA SPACETRACK.ORG API,18 SPCS,48888,SPACEBEE-103,PAYLOAD,U,21059K,2023/2/25 7:29,968960,15.23714002,0.0007984,97.5792,191.2795,300.9649,59.0802,0,999,9231,0.0010474,0.00025166,0,3837605,0 SPACEBEE-103,1 48888U 21059K   23056.31207140  .00025166  00000-0  10474-2 0  9995,2 48888  97.5792 191.2795 0007984 300.9649  59.0802 15.23714002 92314,2021-059K,48888,6872.787,94.506,500.139,489.165,0,2023/4/22
GENERATED VIA SPACETRACK.ORG API,18 SPCS,48888,SPACEBEE-103,PAYLOAD,U,21059K,2023/2/25 20:05,371904,15.23744032,0.0007891,97.5794,191.8102,298.9875,61.0571,0,999,9239,0.0012024,0.00028941,0,3839003,0 SPACEBEE-103,1 48888U 21059K   23056.83743486  .00028941  00000-0  12024-2 0  9997,2 48888  97.5794 191.8102 0007891 298.9875  61.0571 15.23744032 92398,2021-059K,48888,6872.696,94.504,499.985,489.138,0,2023/4/23
GENERATED VIA SPACETRACK.ORG API,18 SPCS,48888,SPACEBEE-103,PAYLOAD,U,21059K,2023/2/26 8:42,744096,15.23779035,0.000786,97.5793,192.3413,297.4024,62.6412,0,999,9247,0.0013679,0.00032986,0,3841299,0 SPACEBEE-103,1 48888U 21059K   23057.36278639  .00032986  00000-0  13679-2 0  9990,2 48888  97.5793 192.3413 0007860 297.4024  62.6412 15.23779035 92475,2021-059K,48888,6872.591,94.502,499.858,489.054,0,2023/4/24
GENERATED VIA SPACETRACK.ORG API,18 SPCS,48888,SPACEBEE-103,PAYLOAD,U,21059K,2023/2/26 8:42,744096,15.23779035,0.000786,97.5793,192.3413,297.4024,62.6412,0,999,9247,0.0013679,0.00032986,0,3841853,0 SPACEBEE-103,1 48888U 21059K   23057.36278639  .00032986  00000-0  13679-2 0  9990,2 48888  97.5793 192.3413 0007860 297.4024  62.6412 15.23779035 92475,2021-059K,48888,6872.591,94.502,499.858,489.054,0,2023/4/25
